CCSDS_OMM_VERS = 2.0
CREATION_DATE  = 
ORIGINATOR     = 

OBJECT_NAME    = PROGRESS-MS 32
OBJECT_ID      = 2025-204A
CENTER_NAME    = EARTH
REF_FRAME      = TEME
TIME_SYSTEM    = UTC
MEAN_ELEMENT_THEORY = SGP/SGP4

EPOCH          = 2025-12-04T13:02:29.700384
MEAN_MOTION    = 15.49306035
ECCENTRICITY   = .00035956
INCLINATION    = 51.6299
RA_OF_ASC_NODE = 183.0583
ARG_OF_PERICENTER = 202.7086
MEAN_ANOMALY   = 157.3744

EPHEMERIS_TYPE = 0
CLASSIFICATION_TYPE = U
NORAD_CAT_ID   = 65586
ELEMENT_SET_NO = 999
REV_AT_EPOCH   = 27
BSTAR          = .29317999E-3
MEAN_MOTION_DOT = .1591E-3
MEAN_MOTION_DDOT = 0

CCSDS_OMM_VERS = 2.0
CREATION_DATE  = 
ORIGINATOR     = 

OBJECT_NAME    = CYGNUS NG-23
OBJECT_ID      = 2025-208A
CENTER_NAME    = EARTH
REF_FRAME      = TEME
TIME_SYSTEM    = UTC
MEAN_ELEMENT_THEORY = SGP/SGP4

EPOCH          = 2025-12-04T13:02:29.700384
MEAN_MOTION    = 15.49306035
ECCENTRICITY   = .00035956
INCLINATION    = 51.6299
RA_OF_ASC_NODE = 183.0583
ARG_OF_PERICENTER = 202.7086
MEAN_ANOMALY   = 157.3744

EPHEMERIS_TYPE = 0
CLASSIFICATION_TYPE = U
NORAD_CAT_ID   = 65616
ELEMENT_SET_NO = 999
REV_AT_EPOCH   = 22
BSTAR          = .29317999E-3
MEAN_MOTION_DOT = .1591E-3
MEAN_MOTION_DDOT = 0

CCSDS_OMM_VERS = 2.0
CREATION_DATE  = 
ORIGINATOR     = 

OBJECT_NAME    = DRAGONFLY
OBJECT_ID      = 1998-067XH
CENTER_NAME    = EARTH
REF_FRAME      = TEME
TIME_SYSTEM    = UTC
MEAN_ELEMENT_THEORY = SGP/SGP4

EPOCH          = 2025-12-04T14:13:07.489056
MEAN_MOTION    = 15.68739886
ECCENTRICITY   = .0006546
INCLINATION    = 51.6239
RA_OF_ASC_NODE = 177.3823
ARG_OF_PERICENTER = 225.5504
MEAN_ANOMALY   = 134.4958

EPHEMERIS_TYPE = 0
CLASSIFICATION_TYPE = U
NORAD_CAT_ID   = 65729
ELEMENT_SET_NO = 999
REV_AT_EPOCH   = 1188
BSTAR          = .18658E-2
MEAN_MOTION_DOT = .223063E-2
MEAN_MOTION_DDOT = 0

CCSDS_OMM_VERS = 2.0
CREATION_DATE  = 
ORIGINATOR     = 

OBJECT_NAME    = 1998-067XJ
OBJECT_ID      = 1998-067XJ
CENTER_NAME    = EARTH
REF_FRAME      = TEME
TIME_SYSTEM    = UTC
MEAN_ELEMENT_THEORY = SGP/SGP4

EPOCH          = 2025-12-02T19:46:01.269984
MEAN_MOTION    = 16.23931094
ECCENTRICITY   = .00101147
INCLINATION    = 51.6061
RA_OF_ASC_NODE = 180.4655
ARG_OF_PERICENTER = 256.3912
MEAN_ANOMALY   = 103.5981

EPHEMERIS_TYPE = 0
CLASSIFICATION_TYPE = U
NORAD_CAT_ID   = 65730
ELEMENT_SET_NO = 999
REV_AT_EPOCH   = 1168
BSTAR          = .2285911E-2
MEAN_MOTION_DOT = .6330363E-1
MEAN_MOTION_DDOT = .11931217E-4

CCSDS_OMM_VERS = 2.0
CREATION_DATE  = 
ORIGINATOR     = 

OBJECT_NAME    = 1998-067XK
OBJECT_ID      = 1998-067XK
CENTER_NAME    = EARTH
REF_FRAME      = TEME
TIME_SYSTEM    = UTC
MEAN_ELEMENT_THEORY = SGP/SGP4

EPOCH          = 2025-12-03T20:33:14.862528
MEAN_MOTION    = 15.63596152
ECCENTRICITY   = .00059045
INCLINATION    = 51.6280
RA_OF_ASC_NODE = 182.2290
ARG_OF_PERICENTER = 193.4783
MEAN_ANOMALY   = 166.6055

EPHEMERIS_TYPE = 0
CLASSIFICATION_TYPE = U
NORAD_CAT_ID   = 65731
ELEMENT_SET_NO = 999
REV_AT_EPOCH   = 1175
BSTAR          = .13142835E-2
MEAN_MOTION_DOT = .126041E-2
MEAN_MOTION_DDOT = 0

CCSDS_OMM_VERS = 2.0
CREATION_DATE  = 
ORIGINATOR     = 

OBJECT_NAME    = RSP-03
OBJECT_ID      = 1998-067XL
CENTER_NAME    = EARTH
REF_FRAME      = TEME
TIME_SYSTEM    = UTC
MEAN_ELEMENT_THEORY = SGP/SGP4

EPOCH          = 2025-12-04T13:52:03.031104
MEAN_MOTION    = 15.66125442
ECCENTRICITY   = .0006496
INCLINATION    = 51.6250
RA_OF_ASC_NODE = 178.0408
ARG_OF_PERICENTER = 200.7712
MEAN_ANOMALY   = 159.3021

EPHEMERIS_TYPE = 0
CLASSIFICATION_TYPE = U
NORAD_CAT_ID   = 65732
ELEMENT_SET_NO = 999
REV_AT_EPOCH   = 1188
BSTAR          = .16859E-2
MEAN_MOTION_DOT = .180215E-2
MEAN_MOTION_DDOT = 0

CCSDS_OMM_VERS = 2.0
CREATION_DATE  = 
ORIGINATOR     = 

OBJECT_NAME    = GHS-01
OBJECT_ID      = 1998-067XM
CENTER_NAME    = EARTH
REF_FRAME      = TEME
TIME_SYSTEM    = UTC
MEAN_ELEMENT_THEORY = SGP/SGP4

EPOCH          = 2025-12-03T22:05:54.332736
MEAN_MOTION    = 15.70494881
ECCENTRICITY   = .0007009
INCLINATION    = 51.6271
RA_OF_ASC_NODE = 180.4028
ARG_OF_PERICENTER = 220.9221
MEAN_ANOMALY   = 139.1251

EPHEMERIS_TYPE = 0
CLASSIFICATION_TYPE = U
NORAD_CAT_ID   = 65733
ELEMENT_SET_NO = 999
REV_AT_EPOCH   = 1179
BSTAR          = .1848703E-2
MEAN_MOTION_DOT = .238165E-2
MEAN_MOTION_DDOT = 0

CCSDS_OMM_VERS = 2.0
CREATION_DATE  = 
ORIGINATOR     = 

OBJECT_NAME    = YOTSUBA-KULOVER
OBJECT_ID      = 1998-067XN
CENTER_NAME    = EARTH
REF_FRAME      = TEME
TIME_SYSTEM    = UTC
MEAN_ELEMENT_THEORY = SGP/SGP4

EPOCH          = 2025-12-04T13:41:28.106016
MEAN_MOTION    = 15.58052031
ECCENTRICITY   = .00020554
INCLINATION    = 51.6276
RA_OF_ASC_NODE = 180.9943
ARG_OF_PERICENTER = 178.3938
MEAN_ANOMALY   = 181.7061

EPHEMERIS_TYPE = 0
CLASSIFICATION_TYPE = U
NORAD_CAT_ID   = 65941
ELEMENT_SET_NO = 999
REV_AT_EPOCH   = 858
BSTAR          = .13676634E-2
MEAN_MOTION_DOT = .105594E-2
MEAN_MOTION_DDOT = 0

CCSDS_OMM_VERS = 2.0
CREATION_DATE  = 
ORIGINATOR     = 

OBJECT_NAME    = BOTAN
OBJECT_ID      = 1998-067XP
CENTER_NAME    = EARTH
REF_FRAME      = TEME
TIME_SYSTEM    = UTC
MEAN_ELEMENT_THEORY = SGP/SGP4

EPOCH          = 2025-12-04T15:44:42.289728
MEAN_MOTION    = 15.60784931
ECCENTRICITY   = .00042645
INCLINATION    = 51.6268
RA_OF_ASC_NODE = 180.0664
ARG_OF_PERICENTER = 180.2775
MEAN_ANOMALY   = 179.8217

EPHEMERIS_TYPE = 0
CLASSIFICATION_TYPE = U
NORAD_CAT_ID   = 65942
ELEMENT_SET_NO = 999
REV_AT_EPOCH   = 860
BSTAR          = .17279415E-2
MEAN_MOTION_DOT = .149041E-2
MEAN_MOTION_DDOT = 0

CCSDS_OMM_VERS = 2.0
CREATION_DATE  = 
ORIGINATOR     = 

OBJECT_NAME    = E-KAGAKU-1
OBJECT_ID      = 1998-067XQ
CENTER_NAME    = EARTH
REF_FRAME      = TEME
TIME_SYSTEM    = UTC
MEAN_ELEMENT_THEORY = SGP/SGP4

EPOCH          = 2025-12-02T21:39:34.941600
MEAN_MOTION    = 15.57714998
ECCENTRICITY   = .00035202
INCLINATION    = 51.6296
RA_OF_ASC_NODE = 189.3580
ARG_OF_PERICENTER = 147.4331
MEAN_ANOMALY   = 212.6879

EPHEMERIS_TYPE = 0
CLASSIFICATION_TYPE = U
NORAD_CAT_ID   = 65943
ELEMENT_SET_NO = 999
REV_AT_EPOCH   = 832
BSTAR          = .96701912E-3
MEAN_MOTION_DOT = .73283E-3
MEAN_MOTION_DDOT = 0

CCSDS_OMM_VERS = 2.0
CREATION_DATE  = 
ORIGINATOR     = 

OBJECT_NAME    = HRC MONOBLOCK CAMERA
OBJECT_ID      = 1998-067XR
CENTER_NAME    = EARTH
REF_FRAME      = TEME
TIME_SYSTEM    = UTC
MEAN_ELEMENT_THEORY = SGP/SGP4

EPOCH          = 2025-12-04T14:40:20.041248
MEAN_MOTION    = 15.53353663
ECCENTRICITY   = .0004308
INCLINATION    = 51.6287
RA_OF_ASC_NODE = 182.0122
ARG_OF_PERICENTER = 151.4621
MEAN_ANOMALY   = 208.6606

EPHEMERIS_TYPE = 0
CLASSIFICATION_TYPE = U
NORAD_CAT_ID   = 66052
ELEMENT_SET_NO = 999
REV_AT_EPOCH   = 757
BSTAR          = .89797E-3
MEAN_MOTION_DOT = .57752E-3
MEAN_MOTION_DDOT = 0

CCSDS_OMM_VERS = 2.0
CREATION_DATE  = 
ORIGINATOR     = 

OBJECT_NAME    = HTV-X1
OBJECT_ID      = 2025-241A
CENTER_NAME    = EARTH
REF_FRAME      = TEME
TIME_SYSTEM    = UTC
MEAN_ELEMENT_THEORY = SGP/SGP4

EPOCH          = 2025-12-04T13:02:29.700384
MEAN_MOTION    = 15.49306035
ECCENTRICITY   = .00035956
INCLINATION    = 51.6299
RA_OF_ASC_NODE = 183.0583
ARG_OF_PERICENTER = 202.7086
MEAN_ANOMALY   = 157.3744

EPHEMERIS_TYPE = 0
CLASSIFICATION_TYPE = U
NORAD_CAT_ID   = 66174
ELEMENT_SET_NO = 999
REV_AT_EPOCH   = 51
BSTAR          = .29317999E-3
MEAN_MOTION_DOT = .1591E-3
MEAN_MOTION_DDOT = 0

