PROGRESS-MS 32          
1 65586U 25204A   25338.54339931  .00015910  00000+0  29318-3 0  9992
2 65586  51.6299 183.0583 0003595 202.7086 157.3744 15.49306035   275
CYGNUS NG-23            
1 65616U 25208A   25338.54339931  .00015910  00000+0  29318-3 0  9990
2 65616  51.6299 183.0583 0003595 202.7086 157.3744 15.49306035   224
DRAGONFLY               
1 65729U 98067XH  25338.59244779  .00223063  00000+0  18658-2 0  9992
2 65729  51.6239 177.3823 0006546 225.5504 134.4958 15.68739886 11885
1998-067XJ              
1 65730U 98067XJ  25336.82362581  .06330363  11931-4  22859-2 0  9996
2 65730  51.6061 180.4655 0010114 256.3912 103.5981 16.23931094 11687
1998-067XK              
1 65731U 98067XK  25337.85642202  .00126041  00000+0  13143-2 0  9998
2 65731  51.6280 182.2290 0005904 193.4783 166.6055 15.63596152 11759
RSP-03                  
1 65732U 98067XL  25338.57781286  .00180215  00000+0  16859-2 0  9995
2 65732  51.6250 178.0408 0006495 200.7712 159.3021 15.66125442 11880
GHS-01                  
1 65733U 98067XM  25337.92076774  .00238165  00000+0  18487-2 0  9990
2 65733  51.6271 180.4028 0007009 220.9221 139.1251 15.70494881 11792
YOTSUBA-KULOVER         
1 65941U 98067XN  25338.57046419  .00105594  00000+0  13677-2 0  9991
2 65941  51.6276 180.9943 0002055 178.3938 181.7061 15.58052031  8584
BOTAN                   
1 65942U 98067XP  25338.65604502  .00149041  00000+0  17279-2 0  9991
2 65942  51.6268 180.0664 0004264 180.2775 179.8217 15.60784931  8600
E-KAGAKU-1              
1 65943U 98067XQ  25336.90248775  .00073283  00000+0  96702-3 0  9997
2 65943  51.6296 189.3580 0003520 147.4331 212.6879 15.57714998  8329
HRC MONOBLOCK CAMERA    
1 66052U 98067XR  25338.61134307  .00057752  00000+0  89797-3 0  9993
2 66052  51.6287 182.0122 0004307 151.4621 208.6606 15.53353663  7577
HTV-X1                  
1 66174U 25241A   25338.54339931  .00015910  00000+0  29318-3 0  9997
2 66174  51.6299 183.0583 0003595 202.7086 157.3744 15.49306035   516
